HULIANWANG DIGUI-81     
1 65313U 25187J   26088.21309869 -.00000093  00000+0  66470-4 0  9992
2 65313  50.0055 132.6599 0000886 229.1153 130.9643 13.29322858 29072
HULIANWANG DIGUI-82     
1 65817U 25220A   26088.23429149  .00000062  00000+0  10968-3 0  9990
2 65817  86.4917  70.8543 0002420  81.6370 278.5039 13.24423587 24339
HULIANWANG DIGUI-83     
1 65818U 25220B   26088.15125394  .00000059  00000+0  10318-3 0  9992
2 65818  86.4940  70.9179 0002417  82.0002 278.1406 13.24422683 24324
HULIANWANG DIGUI-84     
1 65819U 25220C   26088.21921068  .00000077  00000+0  14573-3 0  9999
2 65819  86.4877  70.7715 0002392  81.3221 278.8184 13.24423175 24333
HULIANWANG DIGUI-85     
1 65820U 25220D   26088.21160126  .00000066  00000+0  11970-3 0  9997
2 65820  86.4938  70.8821 0002416  82.2010 277.9398 13.24423626 24333
HULIANWANG DIGUI-86     
1 65821U 25220E   26088.20415510  .00000087  00000+0  16942-3 0  9994
2 65821  86.4916  70.8385 0002412  82.0609 278.0798 13.24422493 24330
HULIANWANG DIGUI-87     
1 65995U 25231A   26086.52037534 -.00000098  00000+0  55987-4 0  9993
2 65995  49.9985 108.7660 0000736 281.6318  78.4471 13.29332071 22021
HULIANWANG DIGUI-88     
1 65996U 25231B   26088.18270686 -.00000084  00000+0  86066-4 0  9992
2 65996  49.9972 102.8606 0000796 289.7854  70.2932 13.29331260 22248
HULIANWANG DIGUI-89     
1 65997U 25231C   26088.16596727 -.00000084  00000+0  86896-4 0  9999
2 65997  49.9949 102.7440 0000794 292.3127  67.7661 13.29327785 22246
HULIANWANG DIGUI-90     
1 65998U 25231D   26088.00725257 -.00000082  00000+0  90119-4 0  9996
2 65998  49.9985 103.2784 0000783 293.2891  66.7898 13.29329565 22227
HULIANWANG DIGUI-91     
1 65999U 25231E   26088.14926497 -.00000084  00000+0  86407-4 0  9998
2 65999  49.9997 102.7230 0000774 290.8164  69.2625 13.29328651 22240
HULIANWANG DIGUI-92     
1 66000U 25231F   26086.48695182 -.00000110  00000+0  30170-4 0  9997
2 66000  50.0038 108.6642 0000781 284.3019  75.7766 13.29332323 22025
HULIANWANG DIGUI-93     
1 66001U 25231G   26088.19941112 -.00000081  00000+0  92081-4 0  9991
2 66001  50.0006 102.3367 0000776 290.7745  69.3044 13.29331666 22259
HULIANWANG DIGUI-94     
1 66002U 25231H   26086.77931357 -.00000145  00000+0 -45938-4 0  9995
2 66002  50.0057 107.5547 0000789 287.0258  73.0528 13.29332449 22063
HULIANWANG DIGUI-95     
1 66003U 25231J   26088.19127269 -.00000077  00000+0  10195-3 0  9992
2 66003  50.0018 102.3106 0000777 288.5280  71.5508 13.29327812 22253
HULIANWANG DIGUI-96     
1 66412U 25258A   26088.06429726 -.00000104  00000+0  42139-4 0  9999
2 66412  50.0037 222.9992 0000615 187.5132 172.5731 13.29333288 19075
