[{"OBJECT_NAME":"HULIANWANG DIGUI-81","OBJECT_ID":"2025-187J","EPOCH":"2026-03-29T05:06:51.726816","MEAN_MOTION":13.29322858,"ECCENTRICITY":8.86e-5,"INCLINATION":50.0055,"RA_OF_ASC_NODE":132.6599,"ARG_OF_PERICENTER":229.1153,"MEAN_ANOMALY":130.9643,"EPHEMERIS_TYPE":0,"CLASSIFICATION_TYPE":"U","NORAD_CAT_ID":65313,"ELEMENT_SET_NO":999,"REV_AT_EPOCH":2907,"BSTAR":6.647e-5,"MEAN_MOTION_DOT":-9.3e-7,"MEAN_MOTION_DDOT":0},{"OBJECT_NAME":"HULIANWANG DIGUI-82","OBJECT_ID":"2025-220A","EPOCH":"2026-03-29T05:37:22.784736","MEAN_MOTION":13.24423587,"ECCENTRICITY":0.000242,"INCLINATION":86.4917,"RA_OF_ASC_NODE":70.8543,"ARG_OF_PERICENTER":81.637,"MEAN_ANOMALY":278.5039,"EPHEMERIS_TYPE":0,"CLASSIFICATION_TYPE":"U","NORAD_CAT_ID":65817,"ELEMENT_SET_NO":999,"REV_AT_EPOCH":2433,"BSTAR":0.00010968,"MEAN_MOTION_DOT":6.2e-7,"MEAN_MOTION_DDOT":0},{"OBJECT_NAME":"HULIANWANG DIGUI-83","OBJECT_ID":"2025-220B","EPOCH":"2026-03-29T03:37:48.340416","MEAN_MOTION":13.24422683,"ECCENTRICITY":0.0002417,"INCLINATION":86.494,"RA_OF_ASC_NODE":70.9179,"ARG_OF_PERICENTER":82.0002,"MEAN_ANOMALY":278.1406,"EPHEMERIS_TYPE":0,"CLASSIFICATION_TYPE":"U","NORAD_CAT_ID":65818,"ELEMENT_SET_NO":999,"REV_AT_EPOCH":2432,"BSTAR":0.00010318,"MEAN_MOTION_DOT":5.9e-7,"MEAN_MOTION_DDOT":0},{"OBJECT_NAME":"HULIANWANG DIGUI-84","OBJECT_ID":"2025-220C","EPOCH":"2026-03-29T05:15:39.802752","MEAN_MOTION":13.24423175,"ECCENTRICITY":0.0002392,"INCLINATION":86.4877,"RA_OF_ASC_NODE":70.7715,"ARG_OF_PERICENTER":81.3221,"MEAN_ANOMALY":278.8184,"EPHEMERIS_TYPE":0,"CLASSIFICATION_TYPE":"U","NORAD_CAT_ID":65819,"ELEMENT_SET_NO":999,"REV_AT_EPOCH":2433,"BSTAR":0.00014573,"MEAN_MOTION_DOT":7.7e-7,"MEAN_MOTION_DDOT":0},{"OBJECT_NAME":"HULIANWANG DIGUI-85","OBJECT_ID":"2025-220D","EPOCH":"2026-03-29T05:04:42.348864","MEAN_MOTION":13.24423626,"ECCENTRICITY":0.0002416,"INCLINATION":86.4938,"RA_OF_ASC_NODE":70.8821,"ARG_OF_PERICENTER":82.201,"MEAN_ANOMALY":277.9398,"EPHEMERIS_TYPE":0,"CLASSIFICATION_TYPE":"U","NORAD_CAT_ID":65820,"ELEMENT_SET_NO":999,"REV_AT_EPOCH":2433,"BSTAR":0.0001197,"MEAN_MOTION_DOT":6.6e-7,"MEAN_MOTION_DDOT":0},{"OBJECT_NAME":"HULIANWANG DIGUI-86","OBJECT_ID":"2025-220E","EPOCH":"2026-03-29T04:53:59.000640","MEAN_MOTION":13.24422493,"ECCENTRICITY":0.0002412,"INCLINATION":86.4916,"RA_OF_ASC_NODE":70.8385,"ARG_OF_PERICENTER":82.0609,"MEAN_ANOMALY":278.0798,"EPHEMERIS_TYPE":0,"CLASSIFICATION_TYPE":"U","NORAD_CAT_ID":65821,"ELEMENT_SET_NO":999,"REV_AT_EPOCH":2433,"BSTAR":0.00016942,"MEAN_MOTION_DOT":8.7e-7,"MEAN_MOTION_DDOT":0},{"OBJECT_NAME":"HULIANWANG DIGUI-87","OBJECT_ID":"2025-231A","EPOCH":"2026-03-27T12:29:20.429376","MEAN_MOTION":13.29332071,"ECCENTRICITY":7.36e-5,"INCLINATION":49.9985,"RA_OF_ASC_NODE":108.766,"ARG_OF_PERICENTER":281.6318,"MEAN_ANOMALY":78.4471,"EPHEMERIS_TYPE":0,"CLASSIFICATION_TYPE":"U","NORAD_CAT_ID":65995,"ELEMENT_SET_NO":999,"REV_AT_EPOCH":2202,"BSTAR":5.5987e-5,"MEAN_MOTION_DOT":-9.8e-7,"MEAN_MOTION_DDOT":0},{"OBJECT_NAME":"HULIANWANG DIGUI-88","OBJECT_ID":"2025-231B","EPOCH":"2026-03-29T04:23:05.872704","MEAN_MOTION":13.2933126,"ECCENTRICITY":7.96e-5,"INCLINATION":49.9972,"RA_OF_ASC_NODE":102.8606,"ARG_OF_PERICENTER":289.7854,"MEAN_ANOMALY":70.2932,"EPHEMERIS_TYPE":0,"CLASSIFICATION_TYPE":"U","NORAD_CAT_ID":65996,"ELEMENT_SET_NO":999,"REV_AT_EPOCH":2224,"BSTAR":8.6066e-5,"MEAN_MOTION_DOT":-8.4e-7,"MEAN_MOTION_DDOT":0},{"OBJECT_NAME":"HULIANWANG DIGUI-89","OBJECT_ID":"2025-231C","EPOCH":"2026-03-29T03:58:59.572128","MEAN_MOTION":13.29327785,"ECCENTRICITY":7.94e-5,"INCLINATION":49.9949,"RA_OF_ASC_NODE":102.744,"ARG_OF_PERICENTER":292.3127,"MEAN_ANOMALY":67.7661,"EPHEMERIS_TYPE":0,"CLASSIFICATION_TYPE":"U","NORAD_CAT_ID":65997,"ELEMENT_SET_NO":999,"REV_AT_EPOCH":2224,"BSTAR":8.6896e-5,"MEAN_MOTION_DOT":-8.4e-7,"MEAN_MOTION_DDOT":0},{"OBJECT_NAME":"HULIANWANG DIGUI-90","OBJECT_ID":"2025-231D","EPOCH":"2026-03-29T00:10:26.622048","MEAN_MOTION":13.29329565,"ECCENTRICITY":7.83e-5,"INCLINATION":49.9985,"RA_OF_ASC_NODE":103.2784,"ARG_OF_PERICENTER":293.2891,"MEAN_ANOMALY":66.7898,"EPHEMERIS_TYPE":0,"CLASSIFICATION_TYPE":"U","NORAD_CAT_ID":65998,"ELEMENT_SET_NO":999,"REV_AT_EPOCH":2222,"BSTAR":9.0119e-5,"MEAN_MOTION_DOT":-8.2e-7,"MEAN_MOTION_DDOT":0},{"OBJECT_NAME":"HULIANWANG DIGUI-91","OBJECT_ID":"2025-231E","EPOCH":"2026-03-29T03:34:56.493408","MEAN_MOTION":13.29328651,"ECCENTRICITY":7.74e-5,"INCLINATION":49.9997,"RA_OF_ASC_NODE":102.723,"ARG_OF_PERICENTER":290.8164,"MEAN_ANOMALY":69.2625,"EPHEMERIS_TYPE":0,"CLASSIFICATION_TYPE":"U","NORAD_CAT_ID":65999,"ELEMENT_SET_NO":999,"REV_AT_EPOCH":2224,"BSTAR":8.6407e-5,"MEAN_MOTION_DOT":-8.4e-7,"MEAN_MOTION_DDOT":0},{"OBJECT_NAME":"HULIANWANG DIGUI-92","OBJECT_ID":"2025-231F","EPOCH":"2026-03-27T11:41:12.637248","MEAN_MOTION":13.29332323,"ECCENTRICITY":7.81e-5,"INCLINATION":50.0038,"RA_OF_ASC_NODE":108.6642,"ARG_OF_PERICENTER":284.3019,"MEAN_ANOMALY":75.7766,"EPHEMERIS_TYPE":0,"CLASSIFICATION_TYPE":"U","NORAD_CAT_ID":66000,"ELEMENT_SET_NO":999,"REV_AT_EPOCH":2202,"BSTAR":3.017e-5,"MEAN_MOTION_DOT":-1.1e-6,"MEAN_MOTION_DDOT":0},{"OBJECT_NAME":"HULIANWANG DIGUI-93","OBJECT_ID":"2025-231G","EPOCH":"2026-03-29T04:47:09.120768","MEAN_MOTION":13.29331666,"ECCENTRICITY":7.76e-5,"INCLINATION":50.0006,"RA_OF_ASC_NODE":102.3367,"ARG_OF_PERICENTER":290.7745,"MEAN_ANOMALY":69.3044,"EPHEMERIS_TYPE":0,"CLASSIFICATION_TYPE":"U","NORAD_CAT_ID":66001,"ELEMENT_SET_NO":999,"REV_AT_EPOCH":2225,"BSTAR":9.2081e-5,"MEAN_MOTION_DOT":-8.1e-7,"MEAN_MOTION_DDOT":0},{"OBJECT_NAME":"HULIANWANG DIGUI-94","OBJECT_ID":"2025-231H","EPOCH":"2026-03-27T18:42:12.692448","MEAN_MOTION":13.29332449,"ECCENTRICITY":7.898e-5,"INCLINATION":50.0057,"RA_OF_ASC_NODE":107.5547,"ARG_OF_PERICENTER":287.0258,"MEAN_ANOMALY":73.0528,"EPHEMERIS_TYPE":0,"CLASSIFICATION_TYPE":"U","NORAD_CAT_ID":66002,"ELEMENT_SET_NO":999,"REV_AT_EPOCH":2206,"BSTAR":-4.5937526e-5,"MEAN_MOTION_DOT":-1.45e-6,"MEAN_MOTION_DDOT":0},{"OBJECT_NAME":"HULIANWANG DIGUI-95","OBJECT_ID":"2025-231J","EPOCH":"2026-03-29T04:35:25.960416","MEAN_MOTION":13.29327812,"ECCENTRICITY":7.77e-5,"INCLINATION":50.0018,"RA_OF_ASC_NODE":102.3106,"ARG_OF_PERICENTER":288.528,"MEAN_ANOMALY":71.5508,"EPHEMERIS_TYPE":0,"CLASSIFICATION_TYPE":"U","NORAD_CAT_ID":66003,"ELEMENT_SET_NO":999,"REV_AT_EPOCH":2225,"BSTAR":0.00010195,"MEAN_MOTION_DOT":-7.7e-7,"MEAN_MOTION_DDOT":0},{"OBJECT_NAME":"HULIANWANG DIGUI-96","OBJECT_ID":"2025-258A","EPOCH":"2026-03-29T01:32:35.283264","MEAN_MOTION":13.29333288,"ECCENTRICITY":6.15e-5,"INCLINATION":50.0037,"RA_OF_ASC_NODE":222.9992,"ARG_OF_PERICENTER":187.5132,"MEAN_ANOMALY":172.5731,"EPHEMERIS_TYPE":0,"CLASSIFICATION_TYPE":"U","NORAD_CAT_ID":66412,"ELEMENT_SET_NO":999,"REV_AT_EPOCH":1907,"BSTAR":4.2139e-5,"MEAN_MOTION_DOT":-1.04e-6,"MEAN_MOTION_DDOT":0}]
